# From MPC106342
C/1995 O1 (Hale-Bopp),e,89.1394,283.0443,130.4504,177.7221,0.0004160,0.99496400,0.0000,03/29.7335/1997,2000,g -2.0,4.0
# From MPC 27287
C/1996 B2 (Hyakutake),e,125.6289,186.7893,129.3908,1523,0.0000166,0.99985072,0.0000,04/20.1897/1996,2000,g 10.0,4.0
# From NK 1615
P/1996 R2 (Lagerkvist),e,2.6007,40.0140,333.3460,3.774895,0.1343838,0.31437521,138.5282,12/09.0/2021,2000,g 11.5,4.0
# From MPC 30063
P/1997 B1 (Kobayashi),e,12.3394,328.8819,183.3212,8.581358,0.0392076,0.76039042,355.6982,12/09.0/2021,2000,g 15.0,2.0
# From MPC 75703
P/1998 VS24 (LINEAR),e,5.0265,159.0385,244.6048,4.527190,0.1023201,0.24261153,145.3306,12/09.0/2021,2000,g 13.0,2.0
# From NK 731
P/1999 RO28 (LONEOS),e,7.5671,137.8845,231.2689,3.426662,0.1553807,0.67237433,139.3044,12/09.0/2021,2000,g 20.0,2.0
# From MPC 75704
P/1999 XN120 (Catalina),e,5.0297,285.2962,161.7728,4.178936,0.1153733,0.21025446,189.6713,12/09.0/2021,2000,g 13.5,2.0
# From NK 744
P/2000 R2 (LINEAR),e,11.6871,160.2856,176.5603,3.467092,0.1526708,0.53159094,138.2210,12/09.0/2021,2000,g 18.0,4.0
# From MPC 43019
P/2001 H5 (NEAT),e,8.3670,328.6842,224.8157,6.097185,0.0654651,0.59827421,146.9758,12/09.0/2021,2000,g 12.0,4.0
# From MPC 75704
P/2001 Q6 (NEAT),e,56.9109,22.1727,42.9296,7.955192,0.0439267,0.82311458,324.3487,12/09.0/2021,2000,g 13.5,4.0
# From MPC 47727
P/2002 EJ57 (LINEAR),e,4.9764,330.3230,167.3330,6.467822,0.0599193,0.59230692,76.1171,12/09.0/2021,2000,g 12.5,4.0
# From MPEC 2021-W31
C/2002 O4 (Hoenig),h,09/30.3028/2002,73.1861,322.0478,105.4061,1.000256,0.762021,2000,9.5,4.0
# From MPC109588
P/2002 T6 (NEAT-LINEAR),e,10.8418,206.1750,219.6603,7.697854,0.0461476,0.56123977,315.9117,12/09.0/2021,2000,g 10.5,4.0
# From MPC 75007
C/2002 VQ94 (LINEAR),e,70.6431,35.0897,100.0766,184.6225,0.0003929,0.96304210,2.2765,12/09.0/2021,2000,g  9.5,2.0
# From MPC 50354
P/2003 F2 (NEAT),e,11.6078,359.0134,192.1964,6.502169,0.0594452,0.54199368,45.0199,12/09.0/2021,2000,g 16.5,2.0
# From MPC 50139
P/2003 QX29 (NEAT),e,11.3908,264.5484,37.5629,8.023147,0.0433698,0.47289363,302.0670,12/09.0/2021,2000,g  8.5,4.0
# From MPC105235
P/2003 T12 (SOHO),e,11.0213,174.5814,219.7479,2.585803,0.2370341,0.76990000,137.7213,12/09.0/2021,2000,g 17.0,4.0
# From MPC 82312
P/2004 A1 (LONEOS),e,10.5517,124.8521,21.2071,7.964932,0.0438461,0.30945928,278.0892,12/09.0/2021,2000,g  6.5,4.0
# From MPC 54558
P/2004 DO29 (Spacewatch-LINEAR),e,14.5324,147.3723,40.6124,7.288821,0.0500862,0.44110279,314.5041,12/09.0/2021,2000,g 13.5,2.0
# From MPC 54823
P/2004 FY140 (LINEAR),e,2.1348,326.7670,242.3055,4.904699,0.0907372,0.16800949,211.6948,12/09.0/2021,2000,g 12.5,2.0
# From MPC 53304
P/2004 R3 (LINEAR-NEAT),e,12.7883,305.4072,37.8764,4.779303,0.0943316,0.25780653,7.3238,12/09.0/2021,2000,g 14.5,4.0
# From MPC 55521
P/2004 V3 (Siding Spring),e,50.4432,356.1282,322.4044,7.136753,0.0516955,0.44623038,323.1144,12/09.0/2021,2000,g 11.5,4.0
# From MPC 75705
P/2004 V5 (LINEAR-Hill),e,19.3402,47.7903,87.6447,7.982924,0.0436980,0.44386558,269.2380,12/09.0/2021,2000,g  8.0,4.0
# From MPC 54164
P/2005 E1 (Tubbiolo),e,4.2637,335.5689,193.9901,7.043885,0.0527213,0.37521794,325.2506,12/09.0/2021,2000,g 10.0,4.0
# From MPC 54823
P/2005 GF8 (LONEOS),e,1.1861,314.6149,284.5780,5.811780,0.0703462,0.51707824,56.5528,12/09.0/2021,2000,g 11.5,4.0
# From MPC 79019
P/2005 J1 (McNaught),e,31.7533,268.8198,338.9566,3.570995,0.1460563,0.56936438,168.5206,12/09.0/2021,2000,g 16.5,4.0
# From MPC 74246
P/2005 L1 (McNaught),e,7.7385,138.2483,149.7490,3.977807,0.1242334,0.20996486,4.4913,12/09.0/2021,2000,g  9.5,4.0
# From MPC 75706
P/2005 S2 (Skiff),e,3.1357,161.2180,229.2292,8.011554,0.0434639,0.19789528,247.2264,12/09.0/2021,2000,g  7.5,4.0
# From MPC 75706
P/2005 SB216 (LONEOS),e,24.0978,1.1574,83.3204,7.136641,0.0516968,0.46404745,282.4470,12/09.0/2021,2000,g 12.0,2.0
# From MPEC 2021-W47
P/2005 T2 (Christensen),e,8.2890,260.1568,58.9238,3.846457,0.1306510,0.41584937,80.0396,12/09.0/2021,2000,g 14.5,4.0
# From MPC 73461
P/2005 T3 (Read),e,6.2236,27.7002,6.7286,7.585251,0.0471790,0.17481725,279.2527,12/09.0/2021,2000,g  9.0,4.0
# From MPC 73461
P/2005 T4 (SWAN),e,160.2374,25.8265,41.7340,9.360952,0.0344131,0.92970869,203.4220,12/09.0/2021,2000,g 15.0,4.0
# From MPC 75706
P/2005 T5 (Broughton),e,21.3685,56.9997,304.6131,7.286554,0.0501096,0.55252270,295.7022,12/09.0/2021,2000,g 11.0,4.0
# From MPC 75706
P/2005 Y2 (McNaught),e,19.0459,94.3030,193.8107,6.362758,0.0614096,0.46937970,25.5732,12/09.0/2021,2000,g  9.0,4.0
# From MPC 56954
P/2006 F4 (Spacewatch),e,12.4390,183.8233,30.7902,3.517774,0.1493833,0.34100651,128.3934,12/09.0/2021,2000,g 15.0,4.0
# From MPC 75707
P/2006 HR30 (Siding Spring),e,31.8374,309.8841,117.3116,7.810608,0.0451520,0.84261033,247.2318,12/09.0/2021,2000,g 11.0,4.0
# From MPC 75707
P/2007 A2 (Christensen),e,26.4874,300.9100,186.7130,6.331659,0.0618625,0.55799326,338.0315,12/09.0/2021,2000,g 13.5,4.0
# From MPC 75707
P/2007 C2 (Catalina),e,8.6217,275.4236,180.1107,6.993560,0.0532913,0.47142218,276.5032,12/09.0/2021,2000,g 10.0,4.0
# From MPC 84315
C/2007 D1 (LINEAR),e,41.5017,171.2280,339.9304,1306,0.0000209,0.99325418,0.0000,06/07.5668/2007,2000,g  3.5,4.0
# From MPC 82314
P/2007 K2 (Gibbs),e,7.6292,188.6379,347.4056,7.269088,0.0502903,0.68296040,267.0537,12/09.0/2021,2000,g 14.0,4.0
# From MPC 60925
P/2007 Q2 (Gilmore),e,10.2026,172.1564,162.8027,5.654258,0.0733062,0.67012555,27.6371,12/09.0/2021,2000,g 16.0,4.0
# From MPC 73462
P/2007 S1 (Zhao),e,5.9641,141.3701,245.4219,3.820798,0.1319693,0.33972204,320.0660,12/09.0/2021,2000,g 13.0,4.0
# From MPC 61994
P/2007 T2 (Kowalski),e,9.7513,3.3762,359.6463,3.046506,0.1853536,0.78555544,228.6650,12/09.0/2021,2000,g 18.5,4.0
# From MPC 75709
P/2008 L2 (Hill),e,25.8665,218.0137,141.2434,6.027581,0.0666023,0.61332184,325.4958,12/09.0/2021,2000,g 12.5,4.0
# From MPC 64114
P/2008 O3 (Boattini),e,32.2974,47.5757,341.1237,8.218949,0.0418292,0.69588310,206.7983,12/09.0/2021,2000,g 13.0,4.0
# From MPEC 2021-X81
P/2008 WZ96 (LINEAR),e,7.1144,56.4186,341.9866,3.487112,0.1513579,0.46943015,15.8800,12/09.0/2021,2000,g 17.2,4.0
# From MPC 75710
P/2008 Y3 (McNaught),e,38.7718,262.8221,238.1385,8.047565,0.0431725,0.44549988,204.5543,12/09.0/2021,2000,g  8.5,4.0
# From MPC 75710
P/2009 B1 (Boattini),e,22.2247,297.0845,128.8777,6.737441,0.0563588,0.63514767,266.1282,12/09.0/2021,2000,g 13.0,4.0
# From MPC 66466
C/2009 G1 (STEREO),e,108.6701,120.4747,175.4606,449.9002,0.0001033,0.99746945,0.0000,04/16.8623/2009,2000,g  9.0,4.0
# From MPC 75710
P/2009 O3 (Hill),e,16.2823,183.6919,154.4524,7.768043,0.0455236,0.68787292,208.5220,12/09.0/2021,2000,g 12.5,4.0
# From MPC 68902
P/2009 Q5 (McNaught),e,40.9888,160.2802,209.0516,7.433538,0.0486307,0.60943819,217.6019,12/09.0/2021,2000,g 10.0,4.0
# From MPC112389
P/2009 T2 (La Sagra),e,27.5826,215.8545,216.3527,7.721625,0.0459347,0.76576985,200.4676,12/09.0/2021,2000,g 14.0,4.0
# From MPC105235
P/2009 WX51 (Catalina),e,9.5935,31.6314,118.1735,3.082122,0.1821501,0.74002263,70.6225,12/09.0/2021,2000,g 19.0,2.0
# From MPC 74247
P/2009 Y2 (Kowalski),e,29.9439,262.0303,172.1340,6.550217,0.0587923,0.63630395,252.9776,12/09.0/2021,2000,g 13.0,4.0
# From MPC 75711
P/2010 A3 (Hill),e,14.8252,63.7579,42.2038,6.081287,0.0657220,0.73358461,281.8350,12/09.0/2021,2000,g 14.0,4.0
# From MPC 75008
P/2010 C1 (Scotti),e,9.1282,141.8864,3.5627,7.103968,0.0520538,0.25923562,229.7605,12/09.0/2021,2000,g  9.5,4.0
# From MPC 75008
P/2010 D2 (WISE),e,57.0886,319.8888,119.9930,6.718507,0.0565972,0.45117564,244.5278,12/09.0/2021,2000,g 16.0,4.0
# From MPC 75009
P/2010 E2 (Jarnac),e,15.3889,177.8215,8.3433,8.639852,0.0388101,0.71961256,165.8344,12/09.0/2021,2000,g 14.0,4.0
# From MPC 72851
P/2010 H2 (Vales),e,14.2756,64.1921,128.0556,3.833055,0.1313368,0.19608500,203.9475,12/09.0/2021,2000,g  6.0,4.0
# From MPC 70361
P/2010 H3 (SOHO),e,23.0645,77.0849,26.1607,3.037062,0.1862188,0.98535626,0.0000,02/07.9402/2021,2000,g 20.0,2.0
# From MPC 73463
P/2010 H4 (Scotti),e,2.3180,44.7328,179.4689,6.594929,0.0581954,0.26667273,244.1777,12/09.0/2021,2000,g 10.5,4.0
# From MPC 74637
P/2010 H5 (Scotti),e,14.0598,24.7997,175.0311,7.165775,0.0513818,0.15279276,219.5506,12/09.0/2021,2000,g 13.0,2.0
# From MPC 98558
P/2010 J3 (McMillan),e,13.2793,106.4348,157.5991,8.975937,0.0366509,0.72639904,151.0206,12/09.0/2021,2000,g 11.0,4.0
# From MPC 84315
P/2010 JC81 (WISE),e,38.7842,30.8570,12.4239,8.107992,0.0426908,0.77739109,165.8297,12/09.0/2021,2000,g  9.0,4.0
# From MPC 74248
P/2010 T2 (PANSTARRS),e,7.8894,58.7456,353.1080,5.543445,0.0755152,0.32194170,297.1578,12/09.0/2021,2000,g 11.5,4.0
# From MPC 98558
P/2010 TO20 (LINEAR-Grauer),e,2.4788,43.2904,267.0560,5.831724,0.0699856,0.05533145,335.5834,12/09.0/2021,2000,g  9.0,4.0
# From MPC 82316
P/2010 U1 (Boattini),e,8.2167,280.6969,86.0664,6.506635,0.0593840,0.24879253,257.2098,12/09.0/2021,2000,g  9.5,4.0
# From MPEC 2021-R75
C/2010 U3 (Boattini),e,55.5384,43.0086,88.0430,2405,0.0000084,0.99648942,0.0000,02/25.2247/2019,2000,g  1.0,4.0
# From MPC 79021
P/2010 UH55 (Spacewatch),e,8.0397,232.9267,225.1573,6.653835,0.0574243,0.56342272,223.8652,12/09.0/2021,2000,g 11.0,4.0
# From MPC 75009
P/2010 WK (LINEAR),e,11.4015,11.3313,40.9662,5.761975,0.0712602,0.69019434,291.8966,12/09.0/2021,2000,g 14.5,2.0
# From MPC 84021
P/2011 C2 (Gibbs),e,10.8855,12.1232,160.7656,7.413265,0.0488303,0.26891026,177.5559,12/09.0/2021,2000,g  9.0,4.0
# From MPC 79866
P/2011 FR143 (Lemmon),e,15.9775,190.9501,350.0360,6.860740,0.0548463,0.45051285,216.1286,12/09.0/2021,2000,g 14.0,2.0
# From MPC 82317
P/2011 JB15 (Spacewatch-Boattini),e,19.1477,153.5801,111.0731,7.360577,0.0493556,0.31697685,178.1497,12/09.0/2021,2000,g  9.0,4.0
# From MPC 87913
P/2011 N1 (ASH),e,35.7402,77.5866,330.3480,6.247366,0.0631188,0.54444904,220.2789,12/09.0/2021,2000,g 11.5,4.0
# From MPC 75714
P/2011 NO1 (Elenin),e,15.2466,295.8138,263.7542,5.527209,0.0758482,0.77454760,301.7386,12/09.0/2021,2000,g 15.0,4.0
# From MPC 82318
